0 STARLINK-1269
1 45197U 20012V   26235.27087800  .00046530  00000-0  11123-2 0  9999
2 45197  53.1544 340.4970 0000994 343.3106  16.7867 15.41056271360498
0 STARLINK-1417
1 45693U 20035AN  26234.74841743  .00029781  00000-0  13714-2 0  9997
2 45693  53.0520  17.1066 0003909  44.7159 315.4151 15.20077525344090
0 STARLINK-2097
1 47377U 21005AE  26235.39676607  .00000071  00000-0  14029-4 0  9996
2 47377  53.1611  10.5079 0000891  80.0250 280.0852 15.31707374308512
0 STARLINK-2110
1 47389U 21005AS  26235.27377640  .00037176  00000-0  10398-2 0  9990
2 47389  53.1572 340.4688 0002266 335.4097  24.6798 15.36335466308937
0 STARLINK-2111
1 47390U 21005AT  26235.40575655  .00004911  00000-0  16985-3 0  9993
2 47390  53.1586  10.5171 0000997  96.0263 264.0852 15.31709965308519
0 STARLINK-2112
1 47391U 21005AU  26235.33164129  .00022376  00000-0  12098-2 0  9991
2 47391  53.0662 358.2667 0001151  86.3859 273.7265 15.14617097308657
0 STARLINK-2033
1 47650U 21012AG  26235.32300864  .00081856  00000-0  11008-2 0  9992
2 47650  53.1600 341.5050 0005522 338.0545  22.0230 15.57186684305995
0 STARLINK-2566
1 48287U 21036M   26235.40898016 -.00000448  00000-0 -26568-5 0  9995
2 48287  53.1615  21.9791 0001380  94.7288 265.3871 15.31700953293911
0 STARLINK-2555
1 48291U 21036R   26235.06874486  .00002120  00000-0  80038-4 0  9995
2 48291  53.1617  23.5711 0001041  86.5058 273.6063 15.31706523293864
0 STARLINK-2627
1 48687U 21044BB  26235.39625071  .00001235  00000-0  51566-4 0  9993
2 48687  53.1598   9.2043 0001241  97.5047 262.6096 15.31697227290043
0 STARLINK-3508
1 51862U 22022L   26235.26378778  .00001902  00000-0  67427-4 0  9998
2 51862  53.1610 335.3653 0001008  81.2437 278.8680 15.34387008248396
0 STARLINK-3590
1 51867U 22022R   26235.32412670  .00000894  00000-0  36528-4 0  9997
2 51867  53.1621 335.3436 0000991  85.7027 274.4090 15.35391877248348
0 STARLINK-3862
1 52471U 22049W   26234.87746367  .00001301  00000-0  53695-4 0  9998
2 52471  53.1613  23.0633 0001026  83.7706 276.3412 15.31688311237472
0 STARLINK-3881
1 52472U 22049X   26234.95077369 -.00000511  00000-0 -41965-5 0  9999
2 52472  53.1614  27.1678 0001157  83.1028 277.0106 15.33552220237428
0 STARLINK-3813
1 52482U 22049AH  26234.75209105 -.00000040  00000-0  10124-4 0  9991
2 52482  53.1630  18.0497 0001143  81.0605 279.0527 15.33558511237538
0 STARLINK-3887
1 52484U 22049AK  26235.06910953  .00002289  00000-0  76535-4 0  9992
2 52484  53.1616  26.6414 0001264  91.9462 268.1686 15.35386662237446
0 STARLINK-1225
1 45187U 20012K   26235.58400370  .00050109  00000-0  11939-2 0  9995
2 45187  53.1542 339.0523 0001033 129.0224 231.0874 15.41122935360567
0 STARLINK-1246
1 45235U 20012BK  26235.59130322  .00049607  00000-0  11703-2 0  9997
2 45235  53.1540 338.4962 0002726  69.5685 290.5613 15.41423565360607
0 STARLINK-1305
1 45377U 20019T   26235.66668981  .00127768  00000-0  51304-3 0  9993
2 45377  53.0333  27.4394 0002175 350.6664 152.8270 15.85606546  6028
0 STARLINK-1274
1 45387U 20019AD  26235.66668981  .00149123  00000-0  83607-3 0  9994
2 45387  53.0150   7.2637 0004093 359.4005  84.9558 15.78354058  5943
0 STARLINK-1255
1 45399U 20019AR  26234.82741155  .00026436  00000-0  19308-3 0  9997
2 45399  53.0325   8.2816 0002672   0.6769 359.4252 15.73083799356433
0 STARLINK-1329
1 45531U 20025A   26235.66668981  .00191342  00000-0  72152-3 0  9995
2 45531  53.0365 332.3532 0003594 357.3695  97.3875 15.86706732  6024
0 STARLINK-1371
1 45542U 20025M   26235.32442693  .00074492  00000-0  45250-3 0  9995
2 45542  53.0411 354.7675 0002775 320.8115  39.2703 15.76855243351384
0 STARLINK-1356
1 45564U 20025AK  26235.57920434  .00063025  00000-0  47274-3 0  9998
2 45564  53.0407 341.0447 0000906 311.6184  48.4756 15.72039844351597
0 STARLINK-1331
1 45578U 20025AZ  26235.56804274  .00075012  00000-0  44334-3 0  9998
2 45578  53.0435 328.2996 0003595 339.9146  20.1732 15.77468276351789
0 STARLINK-1443
1 45660U 20035D   26235.40378883  .00046194  00000-0  12050-2 0  9994
2 45660  53.1316   8.0086 0001185 323.0211  37.0711 15.38395587344319
0 STARLINK-1458
1 45675U 20035U   26235.56991340  .00042195  00000-0  30597-3 0  9990
2 45675  53.0420 326.1663 0003389   3.7124 356.3919 15.73004952344856
0 STARLINK-1392
1 45677U 20035W   26234.75056392  .00028511  00000-0  59101-3 0  9999
2 45677  53.1512   4.7723 0001357 141.6273 218.4831 15.45535689344303
0 STARLINK-2049
1 47356U 21005H   26235.26329899  .00002775  00000-0  10113-3 0  9999
2 47356  53.1604 341.8206 0000843  72.5624 287.5470 15.31708270308908
0 STARLINK-2071
1 47361U 21005N   26235.32462311  .00004177  00000-0  14627-3 0  9991
2 47361  53.1613 342.0008 0001103  99.5935 260.5191 15.31705405308909
0 STARLINK-2076
1 47362U 21005P   26234.87703035  .00059910  00000-0  13902-2 0  9991
2 47362  53.1578   4.8356 0001899 149.3502 210.7615 15.41839798308558
0 STARLINK-2082
1 47367U 21005U   26234.43085207  .00002387  00000-0  88692-4 0  9998
2 47367  53.1611  11.3914 0001290  77.6786 282.4360 15.31687654308426
0 STARLINK-1230
1 45189U 20012M   26234.69185061  .00048999  00000-0  11689-2 0  9991
2 45189  53.1543 343.3843 0000777  71.1112 288.9977 15.41094816357657
0 STARLINK-1266
1 45383U 20019Z   26234.94689540  .00053453  00000-0  38192-3 0  9993
2 45383  53.0415  41.9733 0002465 175.2074 184.8968 15.73251061356169
0 STARLINK-1278
1 45408U 20019BA  26235.66668981  .00122542  00000-0  46962-3 0  9997
2 45408  53.0336  24.0831 0003201 300.3884 190.1698 15.86582649  5972
0 STARLINK-1404
1 45686U 20035AF  26234.75990316  .00070779  00000-0  11414-2 0  9999
2 45686  53.1543 342.9930 0002179  29.6496 330.4638 15.52298165344616
0 STARLINK-1422
1 45696U 20035AR  26234.82268699  .00052159  00000-0  11520-2 0  9990
2 45696  53.1538 351.6645 0003017 319.8404  40.2379 15.43373381344494
0 STARLINK-1559
1 46077U 20055BC  26235.53810594  .00037421  00000-0  77696-3 0  9994
2 46077  53.0205   7.6094 0000697 233.2636 126.8305 15.45348767335257
0 STARLINK-2088
1 47371U 21005Y   26235.65275842 -.00002632  00000-0 -73025-4 0  9993
2 47371  53.1612   9.3821 0000840  75.6441 284.4653 15.31721804308559
0 STARLINK-2092
1 47373U 21005AA  26235.39559196  .00000029  00000-0  12688-4 0  9997
2 47373  53.1605   6.7216 0000370  87.0183 273.0861 15.31697621308576
0 STARLINK-2119
1 47397U 21005BA  26235.65038259  .00049688  00000-0  12340-2 0  9991
2 47397  53.1566   2.7846 0002212 175.9956 184.1067 15.39867466308658
0 STARLINK-1983
1 47630U 21012L   26235.34305545  .00038380  00000-0  12102-2 0  9993
2 47630  53.1591 354.0069 0001318  19.5667 340.5385 15.32535559305818
0 STARLINK-2039
1 47655U 21012AM  26235.40448653  .00020069  00000-0  61511-3 0  9999
2 47655  53.1603   9.0253 0002277 341.8779  18.2142 15.33795168305636
0 STARLINK-2486
1 48143U 21027BD  26235.47375760  .00037310  00000-0  76261-3 0  9998
2 48143  53.1532  37.1907 0000566 335.8944  24.2037 15.45811939299072
0 STARLINK-2567
1 48276U 21036A   26235.32744356 -.00000295  00000-0  22467-5 0  9994
2 48276  53.1616 355.4770 0000893  85.5976 274.5128 15.31701910294273
0 STARLINK-2542
1 48292U 21036S   26235.39431974  .00000555  00000-0  29647-4 0  9992
2 48292  53.1610  19.4862 0001248  73.9776 286.1363 15.31693741293954
0 STARLINK-2550
1 48293U 21036T   26235.40831416 -.00001908  00000-0 -49747-4 0  9998
2 48293  53.1599  19.5772 0000989  83.3029 276.8085 15.31696919293956
0 STARLINK-2533
1 48294U 21036U   26234.74647259  .00007373  00000-0  24890-3 0  9996
2 48294  53.1602  22.6107 0000803  81.3367 278.7725 15.31729618293851
0 STARLINK-1307
1 45397U 20019AP  26235.47198046  .00040355  00000-0  45953-3 0  9993
2 45397  53.0503  43.0480 0001341  86.6412 273.4754 15.61887837356023
0 STARLINK-1337
1 45582U 20025BD  26235.66668981  .00223096  00000-0  75816-3 0  9993
2 45582  53.0387 312.0581 0007291 358.0131 231.4822 15.88700379  5973
0 STARLINK-1549
1 46074U 20055AZ  26234.89175397  .00048746  00000-0  13149-2 0  9998
2 46074  53.0478  46.2168 0000840 212.1997 147.8954 15.37336152334699
0 STARLINK-1566
1 46079U 20055BE  26235.47072065 -.00000945  00000-0 -18694-4 0  9999
2 46079  53.1597  45.0212 0000965  83.0869 277.0242 15.31699581334794
0 STARLINK-1661
1 46355U 20062AG  26235.57821268  .00033397  00000-0  68463-3 0  9995
2 46355  53.1526 306.8734 0002943  39.2764 320.8456 15.45777532330074
0 STARLINK-2530
1 48303U 21036AD  26235.47200097  .00001137  00000-0  48388-4 0  9994
2 48303  53.1598  32.3236 0001137  98.4803 261.6327 15.31699568293772
0 STARLINK-2524
1 48304U 21036AE  26234.81723631  .00005261  00000-0  18104-3 0  9990
2 48304  53.1596  45.8285 0001098  86.8676 273.2451 15.31722202293510
0 STARLINK-2523
1 48306U 21036AG  26235.47442389  .00000665  00000-0  33201-4 0  9992
2 48306  53.1589  42.8858 0001372 102.9315 257.1839 15.31706126293611
0 STARLINK-2534
1 48311U 21036AM  26235.46738154  .00001365  00000-0  55734-4 0  9998
2 48311  53.1604  32.5578 0001071  79.1323 280.9799 15.31696411293771
0 STARLINK-2513
1 48317U 21036AT  26235.46264787 -.00000082  00000-0  91402-5 0  9999
2 48317  53.1600  32.0953 0001560  55.1163 304.9985 15.31698107293772
0 STARLINK-2457
1 48321U 21036AX  26235.47037676  .00000287  00000-0  21012-4 0  9995
2 48321  53.1603  44.9515 0001478  87.9868 272.1302 15.31696539293595
0 STARLINK-2495
1 48325U 21036BB  26235.46574553  .00003025  00000-0  10921-3 0  9997
2 48325  53.1598  45.0759 0001360  91.0233 269.0924 15.31695829293592
0 STARLINK-2501
1 48330U 21036BG  26234.95341860  .00009222  00000-0  30837-3 0  9992
2 48330  53.1592  47.7651 0001005  88.8957 271.2159 15.31720900293511
0 STARLINK-2514
1 48331U 21036BH  26235.46610290  .00044981  00000-0  11683-2 0  9994
2 48331  53.1569  43.1777 0003515 142.2163 217.9089 15.38538570293625
0 STARLINK-2236
1 48582U 21041AF  26235.66668981  .00254378  00000-0  19381-2 0  9996
2 48582  53.0512  36.3305 0004010 329.0823 154.0792 15.70944126  5942
0 STARLINK-2667
1 48663U 21044AB  26235.47142351  .00000704  00000-0  34447-4 0  9990
2 48663  53.1604  47.7743 0001828  82.2628 277.8580 15.31706671289527
