0 STARLINK-3914
1 52490U 22049AR  26235.66668981  .00062612  00000-0  30604-2 0  9997
2 52490  53.1614  18.8896 0000204 163.1471 164.5551 15.17666003  5817
0 STARLINK-3907
1 52501U 22049BC  26235.39881132  .00000427  00000-0  24316-4 0  9996
2 52501  53.1622  15.2837 0001137  78.2136 281.8994 15.33545930237639
0 STARLINK-4036
1 52837U 22062H   26234.87017054  .00000143  00000-0  14985-4 0  9995
2 52837  53.1621   1.9408 0000784  98.1499 261.9594 15.35399087230951
0 STARLINK-4048
1 52839U 22062K   26235.59471489  .00000043  00000-0  13165-4 0  9991
2 52839  53.1608 358.7258 0001169  88.7718 271.3417 15.31696738231062
0 STARLINK-4212
1 52846U 22062S   26235.60406593 -.00000307  00000-0  18803-5 0  9994
2 52846  53.1615 358.9377 0001086  80.1819 279.9305 15.31699275231067
0 STARLINK-3809
1 52851U 22062X   26235.32482765  .00000212  00000-0  17393-4 0  9990
2 52851  53.1605 345.3490 0000890  59.7700 300.3391 15.34386811231225
0 STARLINK-4207
1 52871U 22062AT  26235.59161406  .00000301  00000-0  20048-4 0  9997
2 52871  53.1605 334.2380 0000822  82.0698 278.0398 15.34386025231407
0 STARLINK-4186
1 52880U 22062BC  26235.32683412 -.00000453  00000-0 -22784-5 0  9994
2 52880  53.1606 335.1956 0001090  73.1806 286.9316 15.34387525231377
0 STARLINK-4181
1 52882U 22062BE  26234.68036919  .00025853  00000-0  98008-3 0  9997
2 52882  53.1562 345.3825 0000892  77.4070 282.7029 15.26737236231179
0 STARLINK-4475
1 53545U 22101U   26235.06993163  .00000447  00000-0  23719-4 0  9994
2 53545  53.1623  26.6359 0001116  84.0629 276.0502 15.35399087222258
0 STARLINK-4494
1 53558U 22101AH  26235.40179208 -.00002402  00000-0 -58000-4 0  9998
2 53558  53.1616  25.2716 0001176  75.8435 284.2698 15.35391621222270
0 STARLINK-4584
1 53571U 22101AW  26234.87279727  .00000039  00000-0  12290-4 0  9993
2 53571  53.1620  17.7593 0001041  87.1435 272.9687 15.34390413222365
0 STARLINK-5297
1 54158U 22141B   26235.33838512  .00000247  00000-0  33608-4 0  9991
2 54158  53.1621 345.6451 0001088  89.4374 270.6742 15.08829285210877
0 STARLINK-5294
1 54159U 22141C   26235.59966218  .00000029  00000-0  19943-4 0  9999
2 54159  53.1624 344.4388 0001111  88.6248 271.4870 15.08827684210912
0 STARLINK-5453
1 54773U 22175R   26235.40118895  .00000110  00000-0  14391-4 0  9991
2 54773  53.1631   9.1396 0000897  83.7800 276.3305 15.34389698205172
0 STARLINK-5454
1 54774U 22175S   26234.74181631 -.00007253  00000-0 -20358-3 0  9992
2 54774  53.1626 354.3742 0000723  82.9972 277.1113 15.34425417205329
0 STARLINK-2740
1 48690U 21044BE  26235.14264295  .00001966  00000-0  75093-4 0  9999
2 48690  53.1600  20.7332 0001121  72.0641 288.0482 15.31706004289868
0 STARLINK-2753
1 48696U 21044BL  26235.40844131  .00041144  00000-0  12976-2 0  9998
2 48696  53.1584  32.7294 0000800  30.9842 329.1207 15.32498998289722
0 STARLINK-3545
1 51855U 22022D   26235.01272349  .00000654  00000-0  30522-4 0  9999
2 51855  53.1609 342.5945 0002012  49.4082 310.7095 15.34384013248218
0 STARLINK-3555
1 51863U 22022M   26235.59342219 -.00000731  00000-0 -10053-4 0  9990
2 51863  53.1613 334.0571 0001328  77.3489 282.7662 15.35390851248387
0 STARLINK-3548
1 51864U 22022N   26235.59276726  .00000457  00000-0  24011-4 0  9992
2 51864  53.1619 333.9367 0001179  96.6118 263.5020 15.35398305248435
0 STARLINK-3578
1 51868U 22022S   26235.58799855  .00000437  00000-0  23441-4 0  9992
2 51868  53.1621 334.0647 0001155  64.3805 295.7318 15.35399149248382
0 STARLINK-3582
1 51873U 22022X   26235.27195488  .00024644  00000-0  96350-3 0  9990
2 51873  53.1998 322.4055 0004992  34.5828 325.5495 15.25732647248533
0 STARLINK-3504
1 51881U 22022AF  26235.52579940  .00000371  00000-0  22103-4 0  9993
2 51881  53.1609 320.1311 0001138  83.8994 276.2139 15.34393046248624
0 STARLINK-3577
1 51884U 22022AJ  26235.59523927  .00004756  00000-0  15181-3 0  9995
2 51884  53.1595 320.5131 0001162  83.9985 276.1150 15.34401085248651
0 STARLINK-3593
1 51896U 22022AW  26235.25973225  .00000708  00000-0  32845-4 0  9991
2 51896  53.1600 321.7320 0001105  82.7077 277.4051 15.33549804248576
0 STARLINK-3681
1 51968U 22025N   26234.68698122 -.00001326  00000-0 -30986-4 0  9993
2 51968  53.1610 331.8119 0001234 102.1184 257.9956 15.31699651246450
0 STARLINK-3679
1 51973U 22025T   26234.68068767  .00000366  00000-0  23541-4 0  9995
2 51973  53.1611 344.5240 0000790  82.6088 277.5003 15.31730849246269
0 STARLINK-3672
1 51974U 22025U   26235.27267793 -.00000866  00000-0 -16143-4 0  9999
2 51974  53.1622 341.9987 0001771 118.7728 241.3452 15.31659277246344
0 STARLINK-3660
1 51977U 22025X   26234.55388162 -.00449829  00000-0 -17107-1 0  9990
2 51977  53.1585 345.6886 0018326  71.4738 288.8252 15.28032271246499
0 STARLINK-3664
1 51984U 22025AE  26235.34373835  .00001537  00000-0  54957-4 0  9992
2 51984  53.1617   7.4359 0001079  83.5052 276.6074 15.35395856246262
0 STARLINK-3651
1 51985U 22025AF  26234.75185782  .00001892  00000-0  72730-4 0  9992
2 51985  53.1613   5.6286 0001169  84.5695 275.5439 15.31690786246238
0 STARLINK-3570
1 51882U 22022AG  26235.52452650  .00001154  00000-0  48922-4 0  9999
2 51882  53.1604 320.0146 0001086  88.4911 271.6215 15.31706362248627
0 STARLINK-3576
1 51883U 22022AH  26235.26105695 -.00000381  00000-0 -14091-6 0  9990
2 51883  53.1609 321.3860 0001116  85.4981 274.6149 15.34388671248528
0 STARLINK-3551
1 51887U 22022AM  26235.58830708  .00000401  00000-0  23007-4 0  9995
2 51887  53.1604 317.8577 0001150  83.1542 276.9592 15.34389495248609
0 STARLINK-3700
1 51956U 22025A   26235.58440679 -.00002148  00000-0 -57479-4 0  9991
2 51956  53.1607 317.0019 0000908  80.3273 279.7831 15.31704706246745
0 STARLINK-3636
1 51995U 22025AR  26235.32930200  .00000345  00000-0  22896-4 0  9990
2 51995  53.1613 342.0754 0001019  97.2919 262.8198 15.31685262246189
0 STARLINK-3653
1 52000U 22025AW  26235.58946764  .00000292  00000-0  19273-4 0  9994
2 52000  53.1616 344.1903 0000704  39.8087 320.2968 15.35403542246195
0 STARLINK-3659
1 52001U 22025AX  26235.33578585  .00000314  00000-0  19913-4 0  9996
2 52001  53.1612 345.4220 0001141  79.9316 280.1815 15.35405698246159
0 STARLINK-3668
1 52002U 22025AY  26235.58862686  .00002134  00000-0  72038-4 0  9991
2 52002  53.1612 344.1951 0000994  73.0715 287.0397 15.35407033246190
0 STARLINK-3732
1 52126U 22029AQ  26235.66668981  .00044343  00000-0  20828-2 0  9999
2 52126  53.1604  38.7828 0000332  58.1424 313.1513 15.19209960  5650
0 STARLINK-3718
1 52132U 22029AW  26235.66668981  .00056555  00000-0  19042-2 0  9990
2 52132  53.1608  37.5127 0000584  82.1777 305.5209 15.30250236  5806
0 STARLINK-3730
1 52139U 22029BD  26235.46229911  .00000859  00000-0  36572-4 0  9996
2 52139  53.1615  40.4436 0001087  77.6099 282.5025 15.34389065246109
0 STARLINK-3872
1 52453U 22049C   26235.66668981  .00016643  00000-0  78926-3 0  9999
2 52453  53.1611  38.7314 0000634 123.4489 234.6878 15.19421060  5662
0 STARLINK-3890
1 52455U 22049E   26235.66668981  .00019839  00000-0  97058-3 0  9998
2 52455  53.1613  38.8176 0000512 156.5786 171.8989 15.18215056  5665
0 STARLINK-3896
1 52456U 22049F   26235.54085379  .00003300  00000-0  12666-3 0  9998
2 52456  53.1615  38.0289 0001034  99.8295 260.2822 15.29350066237321
0 STARLINK-3885
1 52463U 22049N   26235.39559513 -.00000537  00000-0 -50038-5 0  9993
2 52463  53.1627  15.3495 0001149  80.8943 279.2190 15.33547596237628
0 STARLINK-3873
1 52467U 22049S   26235.60608791  .00002285  00000-0  76380-4 0  9991
2 52467  53.1612  23.8700 0001030  52.9288 307.1809 15.35404908237528
0 STARLINK-2738
1 48668U 21044AG  26235.46676500 -.00006873  00000-0 -20999-3 0  9993
2 48668  53.1602  47.8486 0001058  88.3405 271.7717 15.31688667289529
0 STARLINK-2707
1 48669U 21044AH  26235.21510168  .00003424  00000-0  12201-3 0  9998
2 48669  53.1616  49.1503 0000940  91.1670 268.9439 15.31713120289471
0 STARLINK-3641
1 51788U 22017W   26235.53202498  .00000165  00000-0  16029-4 0  9996
2 51788  53.1590 310.1190 0001280  86.8436 273.2713 15.34390919249245
0 STARLINK-3586
1 51795U 22017AD  26235.58246052 -.00000023  00000-0  10448-4 0  9996
2 51795  53.1603 309.8839 0000954  81.6286 278.4825 15.34388268249252
0 STARLINK-3637
1 51799U 22017AH  26235.58408592  .00000340  00000-0  21210-4 0  9999
2 51799  53.1600 308.5633 0000800 103.6843 256.4249 15.34385949249276
0 STARLINK-3560
1 51859U 22022H   26234.80040536 -.00002462  00000-0 -67587-4 0  9992
2 51859  53.1608 335.3900 0000889  82.9737 277.1366 15.31701574248344
0 STARLINK-3503
1 51865U 22022P   26234.75534288 -.00001306  00000-0 -26554-4 0  9990
2 51865  53.1608 338.1528 0000895  59.9018 300.2073 15.35404673248258
0 STARLINK-3572
1 51879U 22022AD  26235.53420895 -.00001500  00000-0 -33265-4 0  9993
2 51879  53.1614 320.1008 0001447  99.0954 261.0212 15.34395774248576
0 STARLINK-3698
1 52108U 22029W   26234.82582790  .00000535  00000-0  27600-4 0  9991
2 52108  53.1611  43.6601 0001149  85.6930 274.4204 15.33551520245993
0 STARLINK-3860
1 52477U 22049AC  26235.39801880  .00002933  00000-0  97914-4 0  9998
2 52477  53.1612  14.7372 0000754  71.5652 288.5432 15.34395459238879
0 STARLINK-3825
1 52478U 22049AD  26235.40400369  .00001196  00000-0  45192-4 0  9999
2 52478  53.1624  25.7941 0001133  92.8927 267.2205 15.35391374238729
0 STARLINK-3875
1 52483U 22049AJ  26234.88432846 -.00000440  00000-0 -17091-5 0  9992
2 52483  53.1620  17.3340 0001117  81.0519 279.0611 15.35404749238790
0 STARLINK-3913
1 52485U 22049AL  26235.40247529  .00001682  00000-0  62475-4 0  9997
2 52485  53.1627  14.9604 0000913  74.7961 285.3142 15.33543208237631
0 STARLINK-3884
1 52497U 22049AY  26234.81885297 -.00000246  00000-0  38321-5 0  9994
2 52497  53.1620  17.9945 0000705 101.9401 258.1680 15.33547463237541
0 STARLINK-4049
1 52840U 22062L   26235.26542536 -.00000265  00000-0  30308-5 0  9995
2 52840  53.1781 334.4893 0001443  65.5481 294.5669 15.26509694231386
0 STARLINK-4196
1 52859U 22062AF  26234.81725316  .00000810  00000-0  35964-4 0  9991
2 52859  53.1619 351.6506 0001197  84.8710 275.2428 15.33550351231094
